IRIDIUM 116             
1 43072U 17083C   23335.59599593 -.00000338  00000+0 -12770-3 0  9990
2 43072  86.3965 350.1109 0002015  88.2475 271.8952 14.34212827311076
IRIDIUM 130             
1 43073U 17083D   23335.56429263 -.00000360  00000+0 -13554-3 0  9990
2 43073  86.3969 350.3083 0002224  92.6193 267.5257 14.34215147311014
IRIDIUM 151             
1 43074U 17083E   23335.95752941  .00000175  00000+0  55286-4 0  9997
2 43074  86.3966 349.9957 0001868  89.9118 270.2292 14.34214187311096
IRIDIUM 134             
1 43075U 17083F   23335.57698055  .00000530  00000+0  18232-3 0  9995
2 43075  86.3967 350.1507 0002372  92.0599 268.0869 14.34217687311006
IRIDIUM 137             
1 43076U 17083G   23335.58965899 -.00000050  00000+0 -25059-4 0  9995
2 43076  86.3968 350.2197 0001902  81.9341 278.2070 14.34213200311075
IRIDIUM 141             
1 43077U 17083H   23335.58331600  .00000541  00000+0  18622-3 0  9993
2 43077  86.3948 350.1068 0001821 112.9252 247.2136 14.34216211311070
IRIDIUM 153             
1 43078U 17083J   23335.95409858  .00000393  00000+0  13336-3 0  9998
2 43078  86.3947 318.4025 0002035  98.4793 261.6634 14.34215379312232
IRIDIUM 131             
1 43079U 17083K   23335.57063290  .00000330  00000+0  11065-3 0  9991
2 43079  86.3971 350.2344 0002097  97.0370 263.1065 14.34216044311001
